{
  "type": "FeatureCollection",
  "features": [
    {
      "type": "Feature",
      "properties": {
        "norad_id": 67012,
        "name": "STARLINK-36175",
        "group": "last-30-days",
        "lat": -29.73104226848892,
        "lon": -67.71898065166579,
        "alt_km": 293.3237530627939,
        "timestamp": "2025-12-19T10:49:59.925427+00:00",
        "meta_object_name": "STARLINK-36175",
        "meta_object_id": "2025-293K",
        "meta_epoch": "2025-12-17T20:00:01.999872",
        "meta_mean_motion": 15.97689454,
        "meta_eccentricity": 0.00041397,
        "meta_inclination": 69.9934,
        "meta_ra_of_asc_node": 309.0186,
        "meta_arg_of_pericenter": 268.0112,
        "meta_mean_anomaly": 125.4057,
        "meta_ephemeris_type": 0,
        "meta_classification_type": "U",
        "meta_norad_cat_id": 67012,
        "meta_element_set_no": 999,
        "meta_rev_at_epoch": 238,
        "meta_bstar": -0.0021669699,
        "meta_mean_motion_dot": -0.00974747,
        "meta_mean_motion_ddot": 0.00030584746,
        "tle_line1": "1 67012U 25293K   25351.83335648 -.00974747  30585-3 -21670-2 0  9995",
        "tle_line2": "2 67012  69.9934 309.0186 0004139 268.0112 125.4057 15.97689454  2387"
      },
      "geometry": {
        "type": "Point",
        "coordinates": [
          -67.71898065166579,
          -29.73104226848892
        ]
      }
    },
    {
      "type": "Feature",
      "properties": {
        "norad_id": 67013,
        "name": "STARLINK-35856",
        "group": "last-30-days",
        "lat": -28.589932440240965,
        "lon": -67.16514541299142,
        "alt_km": 294.6058254442778,
        "timestamp": "2025-12-19T10:49:59.925438+00:00",
        "meta_object_name": "STARLINK-35856",
        "meta_object_id": "2025-293L",
        "meta_epoch": "2025-12-18T22:00:00.999936",
        "meta_mean_motion": 15.95482084,
        "meta_eccentricity": 0.00039215,
        "meta_inclination": 69.9943,
        "meta_ra_of_asc_node": 305.8473,
        "meta_arg_of_pericenter": 266.793,
        "meta_mean_anomaly": 233.5524,
        "meta_ephemeris_type": 0,
        "meta_classification_type": "U",
        "meta_norad_cat_id": 67013,
        "meta_element_set_no": 999,
        "meta_rev_at_epoch": 130,
        "meta_bstar": -0.0029177907,
        "meta_mean_motion_dot": -0.0116196,
        "meta_mean_motion_ddot": 0.00041316964,
        "tle_line1": "1 67013U 25293L   25352.91667824 -.01161960  41317-3 -29178-2 0  9992",
        "tle_line2": "2 67013  69.9943 305.8473 0003921 266.7930 233.5524 15.95482084  1301"
      },
      "geometry": {
        "type": "Point",
        "coordinates": [
          -67.16514541299142,
          -28.589932440240965
        ]
      }
    },
    {
      "type": "Feature",
      "properties": {
        "norad_id": 67014,
        "name": "STARLINK-36207",
        "group": "last-30-days",
        "lat": -26.53104660316621,
        "lon": -66.19567895417273,
        "alt_km": 294.2774211396436,
        "timestamp": "2025-12-19T10:49:59.925448+00:00",
        "meta_object_name": "STARLINK-36207",
        "meta_object_id": "2025-293M",
        "meta_epoch": "2025-12-18T22:00:00.999936",
        "meta_mean_motion": 15.95555335,
        "meta_eccentricity": 0.00039089,
        "meta_inclination": 69.995,
        "meta_ra_of_asc_node": 305.844,
        "meta_arg_of_pericenter": 269.7063,
        "meta_mean_anomaly": 232.7503,
        "meta_ephemeris_type": 0,
        "meta_classification_type": "U",
        "meta_norad_cat_id": 67014,
        "meta_element_set_no": 999,
        "meta_rev_at_epoch": 130,
        "meta_bstar": -0.0029501054,
        "meta_mean_motion_dot": -0.01179289,
        "meta_mean_motion_ddot": 0.0004249307,
        "tle_line1": "1 67014U 25293M   25352.91667824 -.01179289  42493-3 -29501-2 0  9992",
        "tle_line2": "2 67014  69.9950 305.8440 0003908 269.7063 232.7503 15.95555335  1307"
      },
      "geometry": {
        "type": "Point",
        "coordinates": [
          -66.19567895417273,
          -26.53104660316621
        ]
      }
    },
    {
      "type": "Feature",
      "properties": {
        "norad_id": 67015,
        "name": "STARLINK-36093",
        "group": "last-30-days",
        "lat": -22.43916535848932,
        "lon": -64.37461776486442,
        "alt_km": 293.9525658985149,
        "timestamp": "2025-12-19T10:49:59.925460+00:00",
        "meta_object_name": "STARLINK-36093",
        "meta_object_id": "2025-293N",
        "meta_epoch": "2025-12-18T22:00:00.999936",
        "meta_mean_motion": 15.95679118,
        "meta_eccentricity": 0.00039239,
        "meta_inclination": 69.9946,
        "meta_ra_of_asc_node": 305.8388,
        "meta_arg_of_pericenter": 266.3082,
        "meta_mean_anomaly": 240.3305,
        "meta_ephemeris_type": 0,
        "meta_classification_type": "U",
        "meta_norad_cat_id": 67015,
        "meta_element_set_no": 999,
        "meta_rev_at_epoch": 130,
        "meta_bstar": -0.0029377139,
        "meta_mean_motion_dot": -0.01182163,
        "meta_mean_motion_ddot": 0.00042739382,
        "tle_line1": "1 67015U 25293N   25352.91667824 -.01182163  42739-3 -29377-2 0  9992",
        "tle_line2": "2 67015  69.9946 305.8388 0003923 266.3082 240.3305 15.95679118  1306"
      },
      "geometry": {
        "type": "Point",
        "coordinates": [
          -64.37461776486442,
          -22.43916535848932
        ]
      }
    },
    {
      "type": "Feature",
      "properties": {
        "norad_id": 67016,
        "name": "STARLINK-36120",
        "group": "last-30-days",
        "lat": -24.61462062355434,
        "lon": -65.32670168060645,
        "alt_km": 294.2146908075347,
        "timestamp": "2025-12-19T10:49:59.925472+00:00",
        "meta_object_name": "STARLINK-36120",
        "meta_object_id": "2025-293P",
        "meta_epoch": "2025-12-18T22:00:00.999936",
        "meta_mean_motion": 15.95609358,
        "meta_eccentricity": 0.00038967,
        "meta_inclination": 69.9948,
        "meta_ra_of_asc_node": 305.8416,
        "meta_arg_of_pericenter": 266.1264,
        "meta_mean_anomaly": 238.2935,
        "meta_ephemeris_type": 0,
        "meta_classification_type": "U",
        "meta_norad_cat_id": 67016,
        "meta_element_set_no": 999,
        "meta_rev_at_epoch": 130,
        "meta_bstar": -0.0029309863,
        "meta_mean_motion_dot": -0.0117509,
        "meta_mean_motion_ddot": 0.00042238204,
        "tle_line1": "1 67016U 25293P   25352.91667824 -.01175090  42238-3 -29310-2 0  9995",
        "tle_line2": "2 67016  69.9948 305.8416 0003896 266.1264 238.2935 15.95609358  1304"
      },
      "geometry": {
        "type": "Point",
        "coordinates": [
          -65.32670168060645,
          -24.61462062355434
        ]
      }
    },
    {
      "type": "Feature",
      "properties": {
        "norad_id": 67017,
        "name": "STARLINK-35498",
        "group": "last-30-days",
        "lat": -20.413789141059244,
        "lon": -63.515788391545826,
        "alt_km": 293.64595562058,
        "timestamp": "2025-12-19T10:49:59.925483+00:00",
        "meta_object_name": "STARLINK-35498",
        "meta_object_id": "2025-293Q",
        "meta_epoch": "2025-12-18T22:00:00.999936",
        "meta_mean_motion": 15.95743982,
        "meta_eccentricity": 0.00039079,
        "meta_inclination": 69.9944,
        "meta_ra_of_asc_node": 305.8373,
        "meta_arg_of_pericenter": 267.8178,
        "meta_mean_anomaly": 240.8812,
        "meta_ephemeris_type": 0,
        "meta_classification_type": "U",
        "meta_norad_cat_id": 67017,
        "meta_element_set_no": 999,
        "meta_rev_at_epoch": 130,
        "meta_bstar": -0.0029415122,
        "meta_mean_motion_dot": -0.01187772,
        "meta_mean_motion_ddot": 0.00043143371,
        "tle_line1": "1 67017U 25293Q   25352.91667824 -.01187772  43143-3 -29415-2 0  9998",
        "tle_line2": "2 67017  69.9944 305.8373 0003907 267.8178 240.8812 15.95743982  1303"
      },
      "geometry": {
        "type": "Point",
        "coordinates": [
          -63.515788391545826,
          -20.413789141059244
        ]
      }
    },
    {
      "type": "Feature",
      "properties": {
        "norad_id": 67018,
        "name": "STARLINK-36106",
        "group": "last-30-days",
        "lat": -17.087745868413634,
        "lon": -62.157588445986406,
        "alt_km": 289.5995020967739,
        "timestamp": "2025-12-19T10:49:59.925495+00:00",
        "meta_object_name": "STARLINK-36106",
        "meta_object_id": "2025-293R",
        "meta_epoch": "2025-12-18T22:52:27.954912",
        "meta_mean_motion": 15.95945427,
        "meta_eccentricity": 0.00051513,
        "meta_inclination": 69.9939,
        "meta_ra_of_asc_node": 305.7285,
        "meta_arg_of_pericenter": 272.0477,
        "meta_mean_anomaly": 88.0142,
        "meta_ephemeris_type": 0,
        "meta_classification_type": "U",
        "meta_norad_cat_id": 67018,
        "meta_element_set_no": 999,
        "meta_rev_at_epoch": 260,
        "meta_bstar": -0.00053313418,
        "meta_mean_motion_dot": -0.00219904,
        "meta_mean_motion_ddot": 2.0815056e-05,
        "tle_line1": "1 67018U 25293R   25352.95310133 -.00219904  20815-4 -53313-3 0  9990",
        "tle_line2": "2 67018  69.9939 305.7285 0005151 272.0477  88.0142 15.95945427  2602"
      },
      "geometry": {
        "type": "Point",
        "coordinates": [
          -62.157588445986406,
          -17.087745868413634
        ]
      }
    }
  ]
}